NORAD_CAT_ID,OBJECT_NAME,OBJECT_TYPE,EPOCH,MEAN_MOTION,ECCENTRICITY,INCLINATION,RA_OF_ASC_NODE,ARG_OF_PERICENTER,MEAN_ANOMALY,BSTAR,MEAN_MOTION_DOT,MEAN_MOTION_DDOT,TLE_LINE0,TLE_LINE1,TLE_LINE2,SEMIMAJOR_AXIS,PERIOD,APOGEE,PERIGEE,DECAYED
53629.0,STARLINK-4602,PAYLOAD,2023-08-13 16:44:41,15.08833515,0.0001247,53.2165,129.098,74.5529,285.5601,4.7963e-05,4.75e-06,0.0,0 STARLINK-4602,1 53629U 22104AT  23225.69769685  .00000475  00000-0  47963-4 0  9993,2 53629  53.2165 129.0980 0001247  74.5529 285.5601 15.08833515 53312,6917.9,95.438,540.628,538.903,0.0
53629.0,STARLINK-4602,PAYLOAD,2023-08-15 00:32:25,15.0880843,0.0001321,53.2172,123.1532,101.7771,258.337,-0.00028362,-4.795e-05,0.0,0 STARLINK-4602,1 53629U 22104AT  23227.02252160 -.00004795  00000-0 -28362-3 0  9999,2 53629  53.2172 123.1532 0001321 101.7771 258.3370 15.08808430 53514,6917.977,95.44,540.756,538.928,0.0
53629.0,STARLINK-4602,PAYLOAD,2023-08-15 16:26:17,15.08818176,0.0001427,53.2167,120.1768,83.5827,276.5328,-6.8371e-05,-1.375e-05,0.0,0 STARLINK-4602,1 53629U 22104AT  23227.68492170 -.00001375  00000-0 -68371-4 0  9994,2 53629  53.2167 120.1768 0001427  83.5827 276.5328 15.08818176 53616,6917.947,95.439,540.799,538.825,0.0
53629.0,STARLINK-4602,PAYLOAD,2023-08-16 01:58:35,15.08834915,0.0001565,53.2168,118.3927,90.2229,269.8942,7.1841e-05,8.55e-06,0.0,0 STARLINK-4602,1 53629U 22104AT  23228.08235050  .00000855  00000-0  71841-4 0  9997,2 53629  53.2168 118.3927 0001565  90.2229 269.8942 15.08834915 53679,6917.896,95.438,540.844,538.678,0.0
53629.0,STARLINK-4602,PAYLOAD,2023-08-16 22:38:34,15.08839996,0.0001705,53.2169,114.5278,74.9815,285.1366,0.00053028,8.161e-05,0.0,0 STARLINK-4602,1 53629U 22104AT  23228.94345117  .00008161  00000-0  53028-3 0  9992,2 53629  53.2169 114.5278 0001705  74.9815 285.1366 15.08839996 53803,6917.88,95.438,540.925,538.566,0.0
53629.0,STARLINK-4602,PAYLOAD,2023-08-17 16:07:49,15.0880183,0.0001989,53.2164,111.2557,79.3746,280.747,0.00076769,0.00011938,0.0,0 STARLINK-4602,1 53629U 22104AT  23229.67210466  .00011938  00000-0  76769-3 0  9994,2 53629  53.2164 111.2557 0001989  79.3746 280.7470 15.08801830 53913,6917.997,95.44,541.238,538.486,0.0
53629.0,STARLINK-4602,PAYLOAD,2023-08-18 01:40:07,15.08855487,0.0001057,53.2179,109.4709,84.1874,275.9239,3.9702e-05,3.44e-06,0.0,0 STARLINK-4602,1 53629U 22104AT  23230.06953075  .00000344  00000-0  39702-4 0  9995,2 53629  53.2179 109.4709 0001057  84.1874 275.9239 15.08855487 53971,6917.833,95.437,540.429,538.967,0.0
53629.0,STARLINK-4602,PAYLOAD,2023-08-19 01:30:56,15.08831765,0.0001689,53.217,105.0109,86.7217,273.3968,-9.5663e-05,-1.81e-05,0.0,0 STARLINK-4602,1 53629U 22104AT  23231.06315048 -.00001810  00000-0 -95663-4 0  9997,2 53629  53.2170 105.0109 0001689  86.7217 273.3968 15.08831765 54120,6917.906,95.438,540.939,538.602,0.0
53629.0,STARLINK-4602,PAYLOAD,2023-08-19 17:24:46,15.08839973,0.0001357,53.2162,102.0374,85.9644,274.1504,4.3866e-05,4.1e-06,0.0,0 STARLINK-4602,1 53629U 22104AT  23231.72554203  .00000410  00000-0  43866-4 0  9999,2 53629  53.2162 102.0374 0001357  85.9644 274.1504 15.08839973 54224,6917.88,95.438,540.684,538.807,0.0
53629.0,STARLINK-4602,PAYLOAD,2023-08-20 01:21:41,15.08847872,0.0001416,53.2162,100.5505,87.2312,272.8843,0.00010837,1.438e-05,0.0,0 STARLINK-4602,1 53629U 22104AT  23232.05673555  .00001438  00000-0  10837-3 0  9990,2 53629  53.2162 100.5505 0001416  87.2312 272.8843 15.08847872 54279,6917.856,95.437,540.701,538.742,0.0
53629.0,STARLINK-4602,PAYLOAD,2023-08-20 18:50:57,15.08836476,0.0001648,53.2161,97.2811,82.4693,277.6486,0.00018772,2.701e-05,0.0,0 STARLINK-4602,1 53629U 22104AT  23232.78538362  .00002701  00000-0  18772-3 0  9996,2 53629  53.2161  97.2811 0001648  82.4693 277.6486 15.08836476 54382,6917.891,95.438,540.896,538.616,0.0
53629.0,STARLINK-4602,PAYLOAD,2023-08-21 01:12:29,15.08845985,0.0001636,53.2178,96.0911,92.3656,267.7523,0.00023484,3.452e-05,0.0,0 STARLINK-4602,1 53629U 22104AT  23233.05033611  .00003452  00000-0  23484-3 0  9994,2 53629  53.2178  96.0911 0001636  92.3656 267.7523 15.08845985 54426,6917.862,95.437,540.859,538.595,0.0
53629.0,STARLINK-4602,PAYLOAD,2023-08-21 20:17:07,15.08836724,0.0001684,53.2173,92.523,94.4436,265.6748,-4.6945e-05,-1.035e-05,0.0,0 STARLINK-4602,1 53629U 22104AT  23233.84522990 -.00001035  00000-0 -46945-4 0  9999,2 53629  53.2173  92.5230 0001684  94.4436 265.6748 15.08836724 54548,6917.89,95.438,540.92,538.59,0.0
53629.0,STARLINK-4602,PAYLOAD,2023-08-22 01:03:16,15.088438,0.0001356,53.2173,91.6293,103.0671,257.0473,-4.1333e-05,-9.46e-06,0.0,0 STARLINK-4602,1 53629U 22104AT  23234.04394380 -.00000946  00000-0 -41333-4 0  9998,2 53629  53.2173  91.6293 0001356 103.0671 257.0473 15.08843800 54577,6917.869,95.437,540.672,538.796,0.0
53629.0,STARLINK-4602,PAYLOAD,2023-08-24 13:27:57,15.08817396,0.0002369,53.2151,80.3323,69.2088,290.9158,0.00043647,6.661e-05,0.0,0 STARLINK-4602,1 53629U 22104AT  23236.56108102  .00006661  00000-0  43647-3 0  9999,2 53629  53.2151  80.3323 0002369  69.2088 290.9158 15.08817396 54951,6917.949,95.439,541.453,538.176,0.0
53629.0,STARLINK-4602,PAYLOAD,2023-08-24 23:00:14,15.08849142,0.0001046,53.217,78.5435,82.7085,277.4026,8.1838e-05,1.015e-05,0.0,0 STARLINK-4602,1 53629U 22104AT  23236.95850215  .00001015  00000-0  81838-4 0  9994,2 53629  53.2170  78.5435 0001046  82.7085 277.4026 15.08849142 55019,6917.852,95.437,540.441,538.994,0.0
53629.0,STARLINK-4602,PAYLOAD,2023-08-25 19:40:15,15.08847674,0.0001443,53.2175,74.6799,87.7313,272.3845,6.0175e-05,6.7e-06,0.0,0 STARLINK-4602,1 53629U 22104AT  23237.81962176  .00000670  00000-0  60175-4 0  9997,2 53629  53.2175  74.6799 0001443  87.7313 272.3845 15.08847674 55835,6917.857,95.437,540.72,538.724,0.0
53629.0,STARLINK-4602,PAYLOAD,2023-08-26 13:09:30,15.08839833,0.0001294,53.2174,71.4085,89.2848,270.8292,2.5084e-05,1.11e-06,0.0,0 STARLINK-4602,1 53629U 22104AT  23238.54826700  .00000111  00000-0  25084-4 0  9990,2 53629  53.2174  71.4085 0001294  89.2848 270.8292 15.08839833 55940,6917.881,95.438,540.641,538.851,0.0
53629.0,STARLINK-4602,PAYLOAD,2023-08-26 17:55:39,15.08840198,0.0001387,53.2176,70.5161,94.0388,266.0763,3.7712e-05,3.12e-06,0.0,0 STARLINK-4602,1 53629U 22104AT  23238.74698649  .00000312  00000-0  37712-4 0  9995,2 53629  53.2176  70.5161 0001387  94.0388 266.0763 15.08840198 55286,6917.88,95.438,540.704,538.785,0.0
53629.0,STARLINK-4602,PAYLOAD,2023-08-26 19:31:02,15.08841133,0.0001415,53.2179,70.2188,95.6481,264.4673,4.5546e-05,4.37e-06,0.0,0 STARLINK-4602,1 53629U 22104AT  23238.81322567  .00000437  00000-0  45546-4 0  9998,2 53629  53.2179  70.2188 0001415  95.6481 264.4673 15.08841133 55987,6917.877,95.437,540.721,538.763,0.0
53629.0,STARLINK-4602,PAYLOAD,2023-08-27 17:46:26,15.0884271,0.0001416,53.2181,66.056,99.7874,260.3278,4.9661e-06,-2.09e-06,0.0,0 STARLINK-4602,1 53629U 22104AT  23239.74058684 -.00000209  00000-0  49661-5 0  9998,2 53629  53.2181  66.0560 0001416  99.7874 260.3278 15.08842710 56124,6917.872,95.437,540.717,538.758,0.0
53629.0,STARLINK-4602,PAYLOAD,2023-08-28 04:54:07,15.08850862,0.0001505,53.2188,63.9747,106.5271,253.5886,6.8516e-05,8.03e-06,0.0,0 STARLINK-4602,1 53629U 22104AT  23240.20425819  .00000803  00000-0  68516-4 0  9997,2 53629  53.2188  63.9747 0001505 106.5271 253.5886 15.08850862 55508,6917.847,95.437,540.753,538.671,0.0
53629.0,STARLINK-4602,PAYLOAD,2023-08-28 19:12:37,15.0883375,0.0001445,53.219,61.2988,97.089,263.0266,4.1435e-05,3.71e-06,0.0,0 STARLINK-4602,1 53629U 22104AT  23240.80043198  .00000371  00000-0  41435-4 0  9990,2 53629  53.2190  61.2988 0001445  97.0890 263.0266 15.08833750 55597,6917.899,95.438,540.764,538.765,0.0
53629.0,STARLINK-4602,PAYLOAD,2023-08-29 17:28:01,15.08836862,0.0001271,53.2188,57.1354,89.9099,270.2039,8.009e-05,9.87e-06,0.0,0 STARLINK-4602,1 53629U 22104AT  23241.72779285  .00000987  00000-0  80090-4 0  9998,2 53629  53.2188  57.1354 0001271  89.9099 270.2039 15.08836862 56421,6917.89,95.438,540.634,538.876,0.0
53629.0,STARLINK-4602,PAYLOAD,2023-08-29 22:14:10,15.08828308,0.0001759,53.2195,56.2436,99.4751,260.644,0.00028899,4.313e-05,0.0,0 STARLINK-4602,1 53629U 22104AT  23241.92651522  .00004313  00000-0  28899-3 0  9998,2 53629  53.2195  56.2436 0001759  99.4751 260.6440 15.08828308 55763,6917.916,95.438,540.998,538.564,0.0
53629.0,STARLINK-4602,PAYLOAD,2023-08-30 10:57:15,15.08834032,0.0001183,53.2179,53.8636,94.1199,265.9928,0.00011084,1.476e-05,0.0,0 STARLINK-4602,1 53629U 22104AT  23242.45643343  .00001476  00000-0  11084-3 0  9994,2 53629  53.2179  53.8636 0001183  94.1199 265.9928 15.08834032 56535,6917.899,95.438,540.582,538.945,0.0
53629.0,STARLINK-4602,PAYLOAD,2023-08-31 10:48:02,15.08833041,0.0001674,53.2184,49.4048,80.0852,280.0329,2.9613e-05,1.83e-06,0.0,0 STARLINK-4602,1 53629U 22104AT  23243.45003340  .00000183  00000-0  29613-4 0  9994,2 53629  53.2184  49.4048 0001674  80.0852 280.0329 15.08833041 55995,6917.902,95.438,540.925,538.609,0.0
53629.0,STARLINK-4602,PAYLOAD,2023-09-01 10:38:50,15.08828156,0.0001098,53.2179,44.9438,80.3363,279.7753,-2.9778e-05,-7.61e-06,0.0,0 STARLINK-4602,1 53629U 22104AT  23244.44364238 -.00000761  00000-0 -29778-4 0  9996,2 53629  53.2179  44.9438 0001098  80.3363 279.7753 15.08828156 56147,6917.917,95.438,540.541,539.022,0.0
53629.0,STARLINK-4602,PAYLOAD,2023-09-01 17:00:23,15.08833096,0.000126,53.2171,43.7542,79.482,280.6314,-5.6362e-05,-1.185e-05,0.0,0 STARLINK-4602,1 53629U 22104AT  23244.70860144 -.00001185  00000-0 -56362-4 0  9992,2 53629  53.2171  43.7542 0001260  79.4820 280.6314 15.08833096 56873,6917.901,95.438,540.638,538.895,0.0
53629.0,STARLINK-4602,PAYLOAD,2023-09-02 10:29:37,15.0883257,0.0001525,53.2182,40.4825,72.4026,287.7133,0.00023315,3.424e-05,0.0,0 STARLINK-4602,1 53629U 22104AT  23245.43723885  .00003424  00000-0  23315-3 0  9990,2 53629  53.2182  40.4825 0001525  72.4026 287.7133 15.08832570 56297,6917.903,95.438,540.823,538.713,0.0
